[{"OBJECT_NAME":"HYPSO-2","OBJECT_ID":"2024-149BR","EPOCH":"2026-03-09T15:24:17.277696","MEAN_MOTION":14.98259029,"ECCENTRICITY":0.00013898,"INCLINATION":97.6894,"RA_OF_ASC_NODE":146.3679,"ARG_OF_PERICENTER":74.8032,"MEAN_ANOMALY":285.3344,"EPHEMERIS_TYPE":0,"CLASSIFICATION_TYPE":"U","NORAD_CAT_ID":60531,"ELEMENT_SET_NO":999,"REV_AT_EPOCH":8514,"BSTAR":0.00033979817,"MEAN_MOTION_DOT":3.981e-5,"MEAN_MOTION_DDOT":0},{"OBJECT_NAME":"STARLINK-32817","OBJECT_ID":"2025-037C","EPOCH":"2026-03-09T22:51:34.589952","MEAN_MOTION":14.98326829,"ECCENTRICITY":0.00027671,"INCLINATION":70.0031,"RA_OF_ASC_NODE":353.7002,"ARG_OF_PERICENTER":263.1614,"MEAN_ANOMALY":96.923,"EPHEMERIS_TYPE":0,"CLASSIFICATION_TYPE":"U","NORAD_CAT_ID":63079,"ELEMENT_SET_NO":999,"REV_AT_EPOCH":5863,"BSTAR":0.00023347418,"MEAN_MOTION_DOT":2.694e-5,"MEAN_MOTION_DDOT":0}]
